SL-12 R/B(2)            
1 15772U 85042D   26169.64942986  .00000046  00000+0  42067-4 0  9995
2 15772  71.1076 234.4271 0036400 325.5367 146.9046 14.22006246128742
SL-14 R/B               
1 15945U 85069B   26169.78471235  .00000359  00000+0  37698-4 0  9996
2 15945  82.5272 289.8633 0017906 213.5666 146.4417 14.86516596187850
SL-16 R/B               
1 16182U 85097B   26169.75944269 -.00000009  00000+0  19699-4 0  9994
2 16182  71.0033 287.7676 0005387 107.9095 359.0728 14.16610073101545
SL-14 R/B               
1 16496U 86006B   26169.73387862  .00000445  00000+0  44636-4 0  9993
2 16496  82.5261 164.6577 0074879 298.2551  61.1121 14.86946958164222
COSMOS 1743             
1 16719U 86034A   26169.42393656  .00037795  00000+0  35406-3 0  9998
2 16719  82.5283 327.4165 0003996 265.3192  94.7612 15.67035980195982
SL-14 R/B               
1 16792U 86046B   26169.76931774  .00000325  00000+0  34615-4 0  9999
2 16792  82.4817 344.6802 0021628 252.8410 107.0439 14.85671961141418
SL-14 R/B               
1 16882U 86055B   26169.69493810  .00000303  00000+0  32015-4 0  9993
2 16882  82.5203  31.7154 0018918   2.7645  62.4191 14.85724006134366
AJISAI (EGS)            
1 16908U 86061A   26169.89280649 -.00000109  00000+0 -82602-4 0  9998
2 16908  50.0067 142.1499 0011203 184.9029 202.3384 12.44516779480600
SL-14 R/B               
1 17567U 87024B   26169.63135096  .00000288  00000+0  30027-4 0  9997
2 17567  82.5279 357.8930 0016754 288.0387  71.9004 14.86213983103128
COSMOS 1833             
1 17589U 87027A   26169.59488100  .00000331  00000+0  20270-3 0  9993
2 17589  70.9182 113.9091 0022845  52.7685 307.5516 14.13051120 24570
SL-16 R/B               
1 17590U 87027B   26169.76897162 -.00000174  00000+0 -62381-4 0  9993
2 17590  71.0032  63.4956 0006571 310.4008  49.6542 14.17171415 29660
SL-14 R/B               
1 17912U 87038B   26169.81295168  .00000253  00000+0  26505-4 0  9991
2 17912  82.5007 201.5410 0019043 185.7566 174.3435 14.85445925 94245
COSMOS 1844             
1 17973U 87041A   26169.73353907 -.00000135  00000+0 -44913-4 0  9993
2 17973  70.8966 181.0453 0032816 233.3190 126.4915 14.14567575 17874
SL-14 R/B               
1 18153U 87055B   26169.70479450  .00000315  00000+0  33363-4 0  9993
2 18153  82.4995 253.7985 0021597  42.9023 317.3873 14.85711972 84931
COSMOS 1867             
1 18187U 87060A   26169.87974995 -.00000053  00000+0  17877-4 0  9990
2 18187  65.0115  23.3185 0016563 282.1387  77.7841 14.31515871 34422
SL-14 R/B               
1 18749U 88001B   26169.77425983  .00000318  00000+0  33858-4 0  9997
2 18749  82.5133 100.2806 0016433 263.7969  96.1375 14.85610528 57035
COSMOS 1933             
1 18958U 88020A   26169.68469654  .00003256  00000+0  15543-3 0  9997
2 18958  82.5123 150.9523 0003735 180.1997 179.9236 15.18721837 65553
SL-3 R/B                
1 19046U 88032B   26169.88799589  .00003108  00000+0  14301-3 0  9991
2 19046  97.5257 152.9270 0023919 238.6714 121.2180 15.20850091 67489
SL-16 R/B               
1 19120U 88039B   26169.81195078  .00000090  00000+0  65123-4 0  9993
2 19120  71.0135 214.7226 0022150 190.7575 169.3079 14.19629811972735
COSMOS 1953             
1 19210U 88050A   26169.71920112  .00005879  00000+0  20096-3 0  9999
2 19210  82.5074  56.4896 0012233 121.6246 238.6190 15.29996184 53227
SL-8 R/B                
1 19257U 88053B   26169.76038288  .00000143  00000+0  54763-4 0  9990
2 19257  74.0482 286.1573 0019167  80.9098  66.9107 14.38967939991132
COSMOS 1975             
1 19573U 88093A   26169.85552137  .00005745  00000+0  20040-3 0  9992
2 19573  82.5188  16.0233 0011483 165.8726 194.2837 15.29342449 34864
SL-14 R/B               
1 19574U 88093B   26169.76588919  .00000353  00000+0  37597-4 0  9996
2 19574  82.5313 307.1624 0022034  65.5797  57.1790 14.85742897 16026
SL-16 R/B               
1 19650U 88102B   26169.77111081 -.00000075  00000+0 -13465-4 0  9996
2 19650  71.0000 298.8059 0015694 223.1389 136.8506 14.16164018941202
INTERCOSMOS 24          
1 20261U 89080A   26169.68437816  .00000727  00000+0  20532-3 0  9993
2 20261  82.6064  38.6710 1188357  58.4352 312.7285 12.59664236679514
SL-14 R/B               
1 20262U 89080C   26169.52225531  .00000224  00000+0  67168-4 0  9995
2 20262  82.5934 108.4500 1228697 314.3461  36.3062 12.50571369672756
DELTA 1 R/B             
1 20323U 89089B   26169.80566294  .00000216  00000+0  62017-4 0  9996
2 20323  97.0636   1.1049 0069387 161.8951 198.4742 14.50732136910391
ARIANE 40 R/B           
1 20443U 90005H   26169.78190044  .00000184  00000+0  71862-4 0  9994
2 20443  98.2958 227.3484 0008838 258.9327 101.0868 14.39928150907359
DELTA 2 R/B(1)          
1 20453U 90008B   26169.84486419  .00063437  00000+0  46569-3 0  9994
2 20453  35.5985 224.5676 0064890 130.2886 230.3549 15.69043930941963
COSMOS 2058             
1 20465U 90010A   26169.78993669  .00003309  00000+0  19088-3 0  9991
2 20465  82.4689 307.7740 0009002 354.3588   5.7539 15.12024564957517
SL-14 R/B               
1 20466U 90010B   26169.71905407  .00000282  00000+0  31211-4 0  9998
2 20466  82.5015 172.5062 0018966 331.0713  28.9448 14.83647046943466
